{
    "links": {
        "self": "http://www.neowsapp.com/rest/v1/neo/3092375?api_key=iIulBulltgU6a56xZRHN4H3l9WmuAYTsLGpBGhQ2"
    },
    "id": "3092375",
    "neo_reference_id": "3092375",
    "name": "(2001 TB2)",
    "designation": "2001 TB2",
    "nasa_jpl_url": "http://ssd.jpl.nasa.gov/sbdb.cgi?sstr=3092375",
    "absolute_magnitude_h": 21.5,
    "estimated_diameter": {
        "kilometers": {
            "estimated_diameter_min": 0.1332155667,
            "estimated_diameter_max": 0.2978790628
        },
        "meters": {
            "estimated_diameter_min": 133.2155666981,
            "estimated_diameter_max": 297.8790627982
        },
        "miles": {
            "estimated_diameter_min": 0.0827762899,
            "estimated_diameter_max": 0.1850934111
        },
        "feet": {
            "estimated_diameter_min": 437.0589598459,
            "estimated_diameter_max": 977.2935443908
        }
    },
    "is_potentially_hazardous_asteroid": false,
    "close_approach_data": [
        {
            "close_approach_date": "1978-10-21",
            "close_approach_date_full": "1978-Oct-21 15:05",
            "epoch_date_close_approach": 277830300000,
            "relative_velocity": {
                "kilometers_per_second": "15.6177575981",
                "kilometers_per_hour": "56223.9273530826",
                "miles_per_hour": "34935.3619711418"
            },
            "miss_distance": {
                "astronomical": "0.3093242169",
                "lunar": "120.3271203741",
                "kilometers": "46274243.987658003",
                "miles": "28753481.8972583214"
            },
            "orbiting_body": "Earth"
        },
        {
            "close_approach_date": "1994-10-16",
            "close_approach_date_full": "1994-Oct-16 22:34",
            "epoch_date_close_approach": 782346840000,
            "relative_velocity": {
                "kilometers_per_second": "15.5951305476",
                "kilometers_per_hour": "56142.469971207",
                "miles_per_hour": "34884.7475218314"
            },
            "miss_distance": {
                "astronomical": "0.4206954556",
                "lunar": "163.6505322284",
                "kilometers": "62935144.076439572",
                "miles": "39106085.1558352136"
            },
            "orbiting_body": "Earth"
        },
        {
            "close_approach_date": "2001-10-18",
            "close_approach_date_full": "2001-Oct-18 12:13",
            "epoch_date_close_approach": 1003407180000,
            "relative_velocity": {
                "kilometers_per_second": "13.5959389628",
                "kilometers_per_hour": "48945.3802660948",
                "miles_per_hour": "30412.7558658965"
            },
            "miss_distance": {
                "astronomical": "0.137296447",
                "lunar": "53.408317883",
                "kilometers": "20539256.02976789",
                "miles": "12762501.891821282"
            },
            "orbiting_body": "Earth"
        },
        {
            "close_approach_date": "2008-10-22",
            "close_approach_date_full": "2008-Oct-22 00:56",
            "epoch_date_close_approach": 1224636960000,
            "relative_velocity": {
                "kilometers_per_second": "16.6213027974",
                "kilometers_per_hour": "59836.6900705464",
                "miles_per_hour": "37180.1922274459"
            },
            "miss_distance": {
                "astronomical": "0.3836840696",
                "lunar": "149.2531030744",
                "kilometers": "57398319.565091752",
                "miles": "35665661.9390280976"
            },
            "orbiting_body": "Earth"
        },
        {
            "close_approach_date": "2024-10-16",
            "close_approach_date_full": "2024-Oct-16 11:57",
            "epoch_date_close_approach": 1729079820000,
            "relative_velocity": {
                "kilometers_per_second": "14.8737762632",
                "kilometers_per_hour": "53545.5945476089",
                "miles_per_hour": "33271.1501232073"
            },
            "miss_distance": {
                "astronomical": "0.3486127767",
                "lunar": "135.6103701363",
                "kilometers": "52151728.849105629",
                "miles": "32405581.6400465202"
            },
            "orbiting_body": "Earth"
        }
    ],
    "orbital_data": {
        "orbit_id": "16",
        "orbit_determination_date": "2017-04-06 09:16:01",
        "first_observation_date": "2001-10-11",
        "last_observation_date": "2001-11-18",
        "data_arc_in_days": 38,
        "observations_used": 69,
        "orbit_uncertainty": "7",
        "minimum_orbit_intersection": ".136399",
        "jupiter_tisserand_invariant": "4.492",
        "epoch_osculation": "2459000.5",
        "eccentricity": ".2264130007436325",
        "semi_major_axis": "1.460711850419592",
        "inclination": "25.69623768716881",
        "ascending_node_longitude": "26.68836861711239",
        "orbital_period": "644.8300318497973",
        "perihelion_distance": "1.129987697144308",
        "perihelion_argument": "351.8081809108712",
        "aphelion_distance": "1.791436003694876",
        "perihelion_time": "2459285.788610255686",
        "mean_anomaly": "200.7271767454369",
        "mean_motion": ".5582866526350873",
        "equinox": "J2000",
        "orbit_class": {
            "orbit_class_type": "AMO",
            "orbit_class_description": "Near-Earth asteroid orbits similar to that of 1221 Amor",
            "orbit_class_range": "1.017 AU < q (perihelion) < 1.3 AU"
        }
    },
    "is_sentry_object": false
}